ONEWEB-0634             
1 56075U 23043AF  24183.14520906  .00000138  00000+0  33373-3 0  9993
2 56075  87.9032  41.7097 0001532  76.5254 283.6047 13.15547646 63160
ONEWEB-0635             
1 56076U 23043AG  24183.14044191  .00000243  00000+0  61143-3 0  9994
2 56076  87.9028  41.7652 0002185  90.3287 269.8094 13.15550931 63190
ONEWEB-0636             
1 56077U 23043AH  24182.90435968  .00000157  00000+0  38247-3 0  9997
2 56077  87.9029  41.7819 0002147  90.1310 270.0066 13.15547595 62239
ONEWEB-0637             
1 56078U 23043AJ  24182.89801155  .00000118  00000+0  27916-3 0  9999
2 56078  87.9031  41.7596 0002137  92.2296 267.9079 13.15550185 62250
ONEWEB-0647             
1 56079U 23043AK  24182.66508076  .00000110  00000+0  25793-3 0  9994
2 56079  87.9027  41.8244 0002133  86.0721 274.0653 13.15550980 62213
ONEWEB-0651             
1 56080U 23043AL  24183.57301733 -.00000002  00000+0 -38434-4 0  9997
2 56080  87.9031  41.6207 0002023  94.8504 265.2857 13.15546315 62339
ONEWEB-0718             
1 56081U 23043AM  24182.88376220 -.00000011  00000+0 -62862-4 0  9996
2 56081  87.9030  41.7441 0001295  75.1346 284.9928 13.15547041 62251
ONEWEB-0561             
1 56710U 23068A   24183.14459374  .00000130  00000+0  28800-3 0  9997
2 56710  87.9214  56.9362 0002505  90.4193 269.7227 13.20772291 55684
